AEROCUBE 7C             
1 43043U 17071G   19030.95984527  .00002878  00000-0  80250-4 0  9996
2 43043  51.6399  10.7217 0005202  21.0726 339.0472 15.40259806 64664
CHEFSAT                 
1 43044U 17071H   19031.34964815  .00004926  00000-0  12251-3 0  9990
2 43044  51.6401   5.8976 0005090  22.3790 337.7416 15.42149643 64769
ASGARDIA 1              
1 43049U 17071N   19031.11741627  .00002563  00000-0  72274-4 0  9991
2 43049  51.6402   9.5410 0002914  43.6746 316.4469 15.40371833 64687
ISARA                   
1 43050U 17071P   19030.93625207  .00004825  00000-0  12171-3 0  9999
2 43050  51.6393   8.3611 0002781  40.9045 319.2149 15.41767606 64697
FAUNA                   
1 43052U 17071R   19030.95065068  .00003074  00000-0  84140-4 0  9997
2 43052  51.6403   9.9423 0002788  40.4507 319.6685 15.40584362 64665
CORVUS BC3              
1 43118U 18004H   19031.21257845  .00000626  00000-0  29970-4 0  9993
2 43118  97.5052  98.9161 0011095  25.6440 334.5344 15.22609003 58409
MICROMAS-2A             
1 43131U 18004W   19030.66438098  .00001534  00000-0  67099-4 0  9990
2 43131  97.5070  98.7771 0010183  30.6286 329.5544 15.23586873 58349
CICERO 7                
1 43143U 18004AJ  19030.77014895  .00001143  00000-0  50409-4 0  9993
2 43143  97.5061  99.0793 0008576  40.8556 319.3322 15.23823449 58373
GOMX4-B                 
1 43196U 18015E   19030.88909880  .00000613  00000-0  28280-4 0  9995
2 43196  97.3704 160.5925 0020520  76.1009 284.2493 15.23800277 55204
GOMX4-A                 
1 43197U 18015F   19031.41094763  .00000296  00000-0  15133-4 0  9991
2 43197  97.3718 161.1187 0021123  75.9564 319.0250 15.23890552 55292
1KUNS-PF                
1 43466U 98067NP  19031.22909949  .00011894  00000-0  14366-3 0  9997
2 43466  51.6394 314.5935 0000643 109.9595 250.1468 15.61199336 41256
UBAKUSAT                
1 43467U 98067NQ  19031.21286813  .00008675  00000-0  11314-3 0  9998
2 43467  51.6391 315.9815 0001624 253.3854 106.6961 15.59582345 41243
BATSU-CS1 (IRAZU)       
1 43468U 98067NR  19031.20040136  .00015648  00000-0  17830-3 0  9991
2 43468  51.6391 313.6485 0000899 115.3346 244.7742 15.62441867141258
CUBERRT                 
1 43546U 98067NU  19031.13032653  .00020980  00000-0  26336-3 0  9991
2 43546  51.6391 318.4214 0004987 338.2826  21.7955 15.59663089 31333
TEMPEST-D               
1 43547U 98067NV  19031.23179185  .00003207  00000-0  51424-4 0  9995
2 43547  51.6397 319.8450 0005525 333.0569  27.0135 15.56393786 31007
RAINCUBE                
1 43548U 98067NW  19031.14445595  .00010229  00000-0  13973-3 0  9995
2 43548  51.6388 319.2635 0005174 344.5721  15.5113 15.58101180 31458
HALOSAT                 
1 43549U 98067NX  19031.27287324  .00010149  00000-0  13865-3 0  9995
2 43549  51.6390 318.6237 0005168 347.5033  12.5830 15.58107902 31030
ENDUROSAT ONE           
1 43551U 98067NZ  19031.26989257  .00010576  00000-0  13983-3 0  9996
2 43551  51.6396 317.8525 0005588 355.5995   4.4948 15.58934459 31453
EQUISAT                 
1 43552U 98067PA  19031.36533299  .00008700  00000-0  11859-3 0  9995
2 43552  51.6405 317.7436 0005955 354.1295   5.9627 15.58385946 31429
AEROCUBE 12A            
1 43556U 18046C   19030.91149578  .00001712  00000-0  73993-4 0  9995
2 43556  51.6443   2.1339 0008092 296.2202  63.7946 15.28253077 30332
AEROCUBE 12B            
1 43557U 18046D   19031.17745950  .00001651  00000-0  71983-4 0  9990
2 43557  51.6443   0.9078 0008101 296.9773  63.0379 15.28181553 30321
UITMSAT-1               
1 43589U 98067PD  19031.23310212  .00009080  00000-0  12464-3 0  9994
2 43589  51.6383 319.0992 0005392   4.3576 355.7462 15.58132999 27131
MAYA-1                  
1 43590U 98067PE  19031.03773174  .00009408  00000-0  12881-3 0  9991
2 43590  51.6390 320.0462 0005568   4.6637 355.4406 15.58152717 27035
BHUTAN-1                
1 43591U 98067PF  19030.84070027  .00008787  00000-0  12055-3 0  9999
2 43591  51.6399 320.9827 0005592   5.0986 355.0062 15.58197186 27008
SIRIUSSAT-1             
1 43595U 98067PG  19030.95875040  .00009068  00000-0  12683-3 0  9993
2 43595  51.6389 321.0145 0002666 314.7451  45.3323 15.57633584 26196
SIRIUSSAT-2             
1 43596U 98067PH  19030.91067236  .00009027  00000-0  12701-3 0  9996
2 43596  51.6402 321.4606 0003337 315.9026  44.1700 15.57477895 26182
TANUSHA-3               
1 43597U 98067PJ  19030.87579663  .00011505  00000-0  15605-3 0  9994
2 43597  51.6381 321.1924 0002840 335.7306  24.3552 15.58152592 26188
SURFSAT                 
1 43614U 18070B   19030.54686466  .00002113  00000-0  58578-4 0  9996
2 43614  93.0392 306.1681 0018970 117.7092 242.6088 15.36864937 21031
CP-7 (DAVE)             
1 43615U 18070C   19031.19861284  .00002055  00000-0  57031-4 0  9990
2 43615  93.0394 306.4389 0018965 115.3335 244.9885 15.36835548 21137
ELFIN-B                 
1 43616U 18070D   19031.18337708  .00003099  00000-0  84974-4 0  9994
2 43616  93.0354 306.3794 0019935 118.6046 241.7216 15.37146959 21131
ELFIN-A                 
1 43617U 18070E   19030.98505503  .00002947  00000-0  80787-4 0  9991
2 43617  93.0410 306.4043 0019060 115.9575 244.3645 15.37181720 21106
DEBRISSAT-1             
1 43621U 98067PM  19031.14071352  .00196582  00000-0  10919-2 0  9996
2 43621  51.6411 311.7713 0002264  85.7270 274.3991 15.78385650 21323
CUBEBEL-1 (BSUSAT-1)    
1 43666U 18083E   19031.47264281  .00001009  00000-0  54019-4 0  9996
2 43666  97.5328  56.8235 0014108 313.2775 152.6902 15.17273442 14323
DEBRISSAT-2             
1 43680U 98067PR  19031.19954545  .00014245  00000-0  19306-3 0  9995
2 43680  51.6436 319.6194 0002170  12.9341 347.1698 15.57946050 34974
CICERO 10               
1 43690U 18088A   19031.13487570  .00000798  00000-0  35778-4 0  9994
2 43690  85.0360  49.6997 0015313   4.8586 355.2800 15.19377000 12294
IRVINE01                
1 43693U 18088D   19031.19824528  .00002153  00000-0  95669-4 0  9993
2 43693  85.0338  49.5261 0018150 349.2572  10.8279 15.20746352 12317
PROXIMA I               
1 43694U 18088E   19030.84439813  .00000885  00000-0  37802-4 0  9999
2 43694  85.0302  49.6813 0018715 341.2931  18.7621 15.21119553 12272
PROXIMA II              
1 43696U 18088G   19031.17298759  .00000902  00000-0  38584-4 0  9998
2 43696  85.0303  49.4645 0018703 339.9623  20.0882 15.21126249 12315
FACSAT-1                
1 43721U 18096C   19031.44852167  .00001264  00000-0  52022-4 0  9990
2 43721  97.4769 101.4606 0019948  96.9357 263.4151 15.25861364  9652
CENTAURI-2              
1 43722U 18096D   19031.44464942  .00001703  00000-0  68819-4 0  9990
2 43722  97.4769 101.4666 0020030  97.8018 262.5495 15.25979863  9641
STF-1                   
1 43852U 18104D   19030.78479361  .00000041  00000-0  00000+0 0  9998
2 43852  85.0370 148.3078 0016660 129.9213 230.3564 15.20300027  6902
LUME 1                  
1 43908U 18111AJ  19031.40708284  .00000925  00000-0  40799-4 0  9992
2 43908  97.2994 300.3718 0023324 117.1654 243.1965 15.24018899  5380
AOBA VELOX-IV           
1 43940U 19003J   19031.35934856  .00001602  00000-0  70016-4 0  9997
2 43940  97.2966  93.2669 0024262 195.5450 239.9811 15.23281749  2020
